<?xml version="1.0" encoding="UTF-8"?>
<ndm xmlns:xsi="http://www.w3.org/2001/XMLSchema-instance" xsi:noNamespaceSchemaLocation="https://sanaregistry.org/r/ndmxml_unqualified/ndmxml-2.0.0-master-2.0.xsd">
<omm id="CCSDS_OMM_VERS" version="2.0">
<header><CREATION_DATE/><ORIGINATOR/></header><body><segment><metadata><OBJECT_NAME>KUIPER-00016</OBJECT_NAME><OBJECT_ID>2025-088J</OBJECT_ID><CENTER_NAME>EARTH</CENTER_NAME><REF_FRAME>TEME</REF_FRAME><TIME_SYSTEM>UTC</TIME_SYSTEM><MEAN_ELEMENT_THEORY>SGP4</MEAN_ELEMENT_THEORY></metadata><data><meanElements><EPOCH>2025-10-02T21:25:38.877312</EPOCH><MEAN_MOTION>14.79953560</MEAN_MOTION><ECCENTRICITY>.00102314</ECCENTRICITY><INCLINATION>51.8986</INCLINATION><RA_OF_ASC_NODE>89.3691</RA_OF_ASC_NODE><ARG_OF_PERICENTER>264.8460</ARG_OF_PERICENTER><MEAN_ANOMALY>95.1335</MEAN_ANOMALY></meanElements><tleParameters><EPHEMERIS_TYPE>0</EPHEMERIS_TYPE><CLASSIFICATION_TYPE>U</CLASSIFICATION_TYPE><NORAD_CAT_ID>63732</NORAD_CAT_ID><ELEMENT_SET_NO>999</ELEMENT_SET_NO><REV_AT_EPOCH>2396</REV_AT_EPOCH><BSTAR>.86078859E-3</BSTAR><MEAN_MOTION_DOT>.6353E-4</MEAN_MOTION_DOT><MEAN_MOTION_DDOT>0</MEAN_MOTION_DDOT></tleParameters></data></segment></body></omm>
<omm id="CCSDS_OMM_VERS" version="2.0">
<header><CREATION_DATE/><ORIGINATOR/></header><body><segment><metadata><OBJECT_NAME>KUIPER-00018</OBJECT_NAME><OBJECT_ID>2025-088K</OBJECT_ID><CENTER_NAME>EARTH</CENTER_NAME><REF_FRAME>TEME</REF_FRAME><TIME_SYSTEM>UTC</TIME_SYSTEM><MEAN_ELEMENT_THEORY>SGP4</MEAN_ELEMENT_THEORY></metadata><data><meanElements><EPOCH>2025-10-02T20:21:40.442400</EPOCH><MEAN_MOTION>14.77872843</MEAN_MOTION><ECCENTRICITY>.00116688</ECCENTRICITY><INCLINATION>51.9000</INCLINATION><RA_OF_ASC_NODE>77.9256</RA_OF_ASC_NODE><ARG_OF_PERICENTER>291.2218</ARG_OF_PERICENTER><MEAN_ANOMALY>68.7497</MEAN_ANOMALY></meanElements><tleParameters><EPHEMERIS_TYPE>0</EPHEMERIS_TYPE><CLASSIFICATION_TYPE>U</CLASSIFICATION_TYPE><NORAD_CAT_ID>63733</NORAD_CAT_ID><ELEMENT_SET_NO>999</ELEMENT_SET_NO><REV_AT_EPOCH>2412</REV_AT_EPOCH><BSTAR>.72837359E-3</BSTAR><MEAN_MOTION_DOT>.5078E-4</MEAN_MOTION_DOT><MEAN_MOTION_DDOT>0</MEAN_MOTION_DDOT></tleParameters></data></segment></body></omm>
<omm id="CCSDS_OMM_VERS" version="2.0">
<header><CREATION_DATE/><ORIGINATOR/></header><body><segment><metadata><OBJECT_NAME>KUIPER-00019</OBJECT_NAME><OBJECT_ID>2025-088L</OBJECT_ID><CENTER_NAME>EARTH</CENTER_NAME><REF_FRAME>TEME</REF_FRAME><TIME_SYSTEM>UTC</TIME_SYSTEM><MEAN_ELEMENT_THEORY>SGP4</MEAN_ELEMENT_THEORY></metadata><data><meanElements><EPOCH>2025-10-02T16:47:54.392640</EPOCH><MEAN_MOTION>14.79711658</MEAN_MOTION><ECCENTRICITY>.00088471</ECCENTRICITY><INCLINATION>51.8988</INCLINATION><RA_OF_ASC_NODE>77.6896</RA_OF_ASC_NODE><ARG_OF_PERICENTER>302.8171</ARG_OF_PERICENTER><MEAN_ANOMALY>57.1939</MEAN_ANOMALY></meanElements><tleParameters><EPHEMERIS_TYPE>0</EPHEMERIS_TYPE><CLASSIFICATION_TYPE>U</CLASSIFICATION_TYPE><NORAD_CAT_ID>63734</NORAD_CAT_ID><ELEMENT_SET_NO>999</ELEMENT_SET_NO><REV_AT_EPOCH>2411</REV_AT_EPOCH><BSTAR>.82080249E-3</BSTAR><MEAN_MOTION_DOT>.6011E-4</MEAN_MOTION_DOT><MEAN_MOTION_DDOT>0</MEAN_MOTION_DDOT></tleParameters></data></segment></body></omm>
<omm id="CCSDS_OMM_VERS" version="2.0">
<header><CREATION_DATE/><ORIGINATOR/></header><body><segment><metadata><OBJECT_NAME>KUIPER-00020</OBJECT_NAME><OBJECT_ID>2025-088M</OBJECT_ID><CENTER_NAME>EARTH</CENTER_NAME><REF_FRAME>TEME</REF_FRAME><TIME_SYSTEM>UTC</TIME_SYSTEM><MEAN_ELEMENT_THEORY>SGP4</MEAN_ELEMENT_THEORY></metadata><data><meanElements><EPOCH>2025-10-02T20:01:25.609152</EPOCH><MEAN_MOTION>14.79225118</MEAN_MOTION><ECCENTRICITY>.00072875</ECCENTRICITY><INCLINATION>51.8989</INCLINATION><RA_OF_ASC_NODE>81.0976</RA_OF_ASC_NODE><ARG_OF_PERICENTER>278.4316</ARG_OF_PERICENTER><MEAN_ANOMALY>81.5819</MEAN_ANOMALY></meanElements><tleParameters><EPHEMERIS_TYPE>0</EPHEMERIS_TYPE><CLASSIFICATION_TYPE>U</CLASSIFICATION_TYPE><NORAD_CAT_ID>63735</NORAD_CAT_ID><ELEMENT_SET_NO>999</ELEMENT_SET_NO><REV_AT_EPOCH>2428</REV_AT_EPOCH><BSTAR>.89193244E-3</BSTAR><MEAN_MOTION_DOT>.6474E-4</MEAN_MOTION_DOT><MEAN_MOTION_DDOT>0</MEAN_MOTION_DDOT></tleParameters></data></segment></body></omm>
<omm id="CCSDS_OMM_VERS" version="2.0">
<header><CREATION_DATE/><ORIGINATOR/></header><body><segment><metadata><OBJECT_NAME>KUIPER-00021</OBJECT_NAME><OBJECT_ID>2025-088N</OBJECT_ID><CENTER_NAME>EARTH</CENTER_NAME><REF_FRAME>TEME</REF_FRAME><TIME_SYSTEM>UTC</TIME_SYSTEM><MEAN_ELEMENT_THEORY>SGP4</MEAN_ELEMENT_THEORY></metadata><data><meanElements><EPOCH>2025-10-02T19:59:59.406144</EPOCH><MEAN_MOTION>14.79895463</MEAN_MOTION><ECCENTRICITY>.00052405</ECCENTRICITY><INCLINATION>51.8990</INCLINATION><RA_OF_ASC_NODE>82.1122</RA_OF_ASC_NODE><ARG_OF_PERICENTER>279.0013</ARG_OF_PERICENTER><MEAN_ANOMALY>81.0356</MEAN_ANOMALY></meanElements><tleParameters><EPHEMERIS_TYPE>0</EPHEMERIS_TYPE><CLASSIFICATION_TYPE>U</CLASSIFICATION_TYPE><NORAD_CAT_ID>63736</NORAD_CAT_ID><ELEMENT_SET_NO>999</ELEMENT_SET_NO><REV_AT_EPOCH>2410</REV_AT_EPOCH><BSTAR>-.98840491E-3</BSTAR><MEAN_MOTION_DOT>-.7744E-4</MEAN_MOTION_DOT><MEAN_MOTION_DDOT>0</MEAN_MOTION_DDOT></tleParameters></data></segment></body></omm>
<omm id="CCSDS_OMM_VERS" version="2.0">
<header><CREATION_DATE/><ORIGINATOR/></header><body><segment><metadata><OBJECT_NAME>KUIPER-00023</OBJECT_NAME><OBJECT_ID>2025-088P</OBJECT_ID><CENTER_NAME>EARTH</CENTER_NAME><REF_FRAME>TEME</REF_FRAME><TIME_SYSTEM>UTC</TIME_SYSTEM><MEAN_ELEMENT_THEORY>SGP4</MEAN_ELEMENT_THEORY></metadata><data><meanElements><EPOCH>2025-10-02T19:58:30.726912</EPOCH><MEAN_MOTION>14.79942690</MEAN_MOTION><ECCENTRICITY>.00106939</ECCENTRICITY><INCLINATION>51.8987</INCLINATION><RA_OF_ASC_NODE>83.5819</RA_OF_ASC_NODE><ARG_OF_PERICENTER>296.1623</ARG_OF_PERICENTER><MEAN_ANOMALY>63.8239</MEAN_ANOMALY></meanElements><tleParameters><EPHEMERIS_TYPE>0</EPHEMERIS_TYPE><CLASSIFICATION_TYPE>U</CLASSIFICATION_TYPE><NORAD_CAT_ID>63737</NORAD_CAT_ID><ELEMENT_SET_NO>999</ELEMENT_SET_NO><REV_AT_EPOCH>2438</REV_AT_EPOCH><BSTAR>.14042415E-3</BSTAR><MEAN_MOTION_DOT>.848E-5</MEAN_MOTION_DOT><MEAN_MOTION_DDOT>0</MEAN_MOTION_DDOT></tleParameters></data></segment></body></omm>
<omm id="CCSDS_OMM_VERS" version="2.0">
<header><CREATION_DATE/><ORIGINATOR/></header><body><segment><metadata><OBJECT_NAME>KUIPER-00024</OBJECT_NAME><OBJECT_ID>2025-088Q</OBJECT_ID><CENTER_NAME>EARTH</CENTER_NAME><REF_FRAME>TEME</REF_FRAME><TIME_SYSTEM>UTC</TIME_SYSTEM><MEAN_ELEMENT_THEORY>SGP4</MEAN_ELEMENT_THEORY></metadata><data><meanElements><EPOCH>2025-10-02T16:25:05.757024</EPOCH><MEAN_MOTION>14.79188415</MEAN_MOTION><ECCENTRICITY>.00036156</ECCENTRICITY><INCLINATION>51.9025</INCLINATION><RA_OF_ASC_NODE>71.4954</RA_OF_ASC_NODE><ARG_OF_PERICENTER>293.0500</ARG_OF_PERICENTER><MEAN_ANOMALY>67.0080</MEAN_ANOMALY></meanElements><tleParameters><EPHEMERIS_TYPE>0</EPHEMERIS_TYPE><CLASSIFICATION_TYPE>U</CLASSIFICATION_TYPE><NORAD_CAT_ID>63738</NORAD_CAT_ID><ELEMENT_SET_NO>999</ELEMENT_SET_NO><REV_AT_EPOCH>2466</REV_AT_EPOCH><BSTAR>.82568789E-3</BSTAR><MEAN_MOTION_DOT>.597E-4</MEAN_MOTION_DOT><MEAN_MOTION_DDOT>0</MEAN_MOTION_DDOT></tleParameters></data></segment></body></omm>
<omm id="CCSDS_OMM_VERS" version="2.0">
<header><CREATION_DATE/><ORIGINATOR/></header><body><segment><metadata><OBJECT_NAME>KUIPER-00025</OBJECT_NAME><OBJECT_ID>2025-088R</OBJECT_ID><CENTER_NAME>EARTH</CENTER_NAME><REF_FRAME>TEME</REF_FRAME><TIME_SYSTEM>UTC</TIME_SYSTEM><MEAN_ELEMENT_THEORY>SGP4</MEAN_ELEMENT_THEORY></metadata><data><meanElements><EPOCH>2025-10-02T20:03:50.209056</EPOCH><MEAN_MOTION>14.79879256</MEAN_MOTION><ECCENTRICITY>.00084203</ECCENTRICITY><INCLINATION>51.8994</INCLINATION><RA_OF_ASC_NODE>79.6268</RA_OF_ASC_NODE><ARG_OF_PERICENTER>282.2518</ARG_OF_PERICENTER><MEAN_ANOMALY>77.7501</MEAN_ANOMALY></meanElements><tleParameters><EPHEMERIS_TYPE>0</EPHEMERIS_TYPE><CLASSIFICATION_TYPE>U</CLASSIFICATION_TYPE><NORAD_CAT_ID>63739</NORAD_CAT_ID><ELEMENT_SET_NO>999</ELEMENT_SET_NO><REV_AT_EPOCH>2442</REV_AT_EPOCH><BSTAR>-.16557509E-2</BSTAR><MEAN_MOTION_DOT>-.12813E-3</MEAN_MOTION_DOT><MEAN_MOTION_DDOT>0</MEAN_MOTION_DDOT></tleParameters></data></segment></body></omm>

</ndm>
