KUIPER-00016            
1 63732U 25088J   25275.89281108  .00006353  00000+0  86079-3 0  9991
2 63732  51.8986  89.3691 0010231 264.8460  95.1335 14.79953560 23968
KUIPER-00018            
1 63733U 25088K   25275.84838475  .00005078  00000+0  72837-3 0  9992
2 63733  51.9000  77.9256 0011668 291.2218  68.7497 14.77872843 24123
KUIPER-00019            
1 63734U 25088L   25275.69993510  .00006011  00000+0  82080-3 0  9997
2 63734  51.8988  77.6896 0008847 302.8171  57.1939 14.79711658 24117
KUIPER-00020            
1 63735U 25088M   25275.83432418  .00006474  00000+0  89193-3 0  9994
2 63735  51.8989  81.0976 0007287 278.4316  81.5819 14.79225118 24280
KUIPER-00021            
1 63736U 25088N   25275.83332646 -.00007744  00000+0 -98840-3 0  9999
2 63736  51.8990  82.1122 0005240 279.0013  81.0356 14.79895463 24104
KUIPER-00023            
1 63737U 25088P   25275.83230008  .00000848  00000+0  14042-3 0  9997
2 63737  51.8987  83.5819 0010693 296.1623  63.8239 14.79942690 24387
KUIPER-00024            
1 63738U 25088Q   25275.68409441  .00005970  00000+0  82569-3 0  9990
2 63738  51.9025  71.4954 0003615 293.0500  67.0080 14.79188415 24662
KUIPER-00025            
1 63739U 25088R   25275.83599779 -.00012813  00000+0 -16558-2 0  9992
2 63739  51.8994  79.6268 0008420 282.2518  77.7501 14.79879256 24423
